QIANFAN-65              
1 62795U 25016L   25324.65939148  .00000100  00000+0  13612-3 0  9990
2 62795  88.9746 105.3405 0015003  52.2426 308.0082 13.50977812 44261
QIANFAN-66              
1 62796U 25016M   25324.68818416  .00000103  00000+0  14092-3 0  9994
2 62796  88.9765 105.3035 0015998  47.6786 312.5717 13.50981849 44318
QIANFAN-67              
1 62797U 25016N   25324.69237757  .00000109  00000+0  14965-3 0  9994
2 62797  88.9755 105.3308 0016126  54.1216 306.1430 13.50974759 44285
QIANFAN-68              
1 62798U 25016P   25324.75817549  .00000112  00000+0  15530-3 0  9998
2 62798  88.9759 105.3684 0016133  52.2781 307.9829 13.50977077 44277
QIANFAN-69              
1 62799U 25016Q   25324.70065421  .00000091  00000+0  12154-3 0  9993
2 62799  88.9738 105.2484 0016923  53.2272 307.0429 13.50980098 44303
QIANFAN-70              
1 62800U 25016R   25324.71692715  .00000085  00000+0  11293-3 0  9995
2 62800  88.9758 105.3806 0016302  44.2015 316.0435 13.50970474 44262
QIANFAN-71              
1 62801U 25016S   25324.71288299  .00000102  00000+0  13900-3 0  9991
2 62801  88.9753 105.3618 0016914  56.4955 303.7809 13.50977982 44265
QIANFAN-72              
1 62802U 25016T   25324.65529551  .00000106  00000+0  14488-3 0  9990
2 62802  88.9743 105.3833 0020312  62.7337 297.5880 13.50977895 44245
